NORAD_CAT_ID,OBJECT_NAME,OBJECT_TYPE,EPOCH,MEAN_MOTION,ECCENTRICITY,INCLINATION,RA_OF_ASC_NODE,ARG_OF_PERICENTER,MEAN_ANOMALY,BSTAR,MEAN_MOTION_DOT,MEAN_MOTION_DDOT,TLE_LINE0,TLE_LINE1,TLE_LINE2,SEMIMAJOR_AXIS,PERIOD,APOGEE,PERIGEE,DECAYED
53036.0,STARLINK-4155,PAYLOAD,2024-08-11 18:46:57,15.08806493,0.000106,53.2155,134.9764,76.0833,284.0277,-0.00054998,-9.022e-05,0.0,0 STARLINK-4155,1 53036U 22076BC  24224.78260918 -.00009022  00000-0 -54998-3 0  9992,2 53036  53.2155 134.9764 0001060  76.0833 284.0277 15.08806493116796,6917.983,95.44,540.581,539.115,0.0
53036.0,STARLINK-4155,PAYLOAD,2024-08-11 21:57:43,15.08828608,0.0002039,53.216,134.3908,94.599,265.5235,-0.00014035,-2.521e-05,0.0,0 STARLINK-4155,1 53036U 22076BC  24224.91508747 -.00002521  00000-0 -14035-3 0  9997,2 53036  53.2160 134.3908 0002039  94.5990 265.5235 15.08828608116354,6917.915,95.438,541.191,538.37,0.0
53036.0,STARLINK-4155,PAYLOAD,2024-08-12 04:19:15,15.08844195,0.0001281,53.2152,133.1946,69.4585,290.6545,0.0002105,3.064e-05,0.0,0 STARLINK-4155,1 53036U 22076BC  24225.18003987  .00003064  00000-0  21050-3 0  9999,2 53036  53.2152 133.1946 0001281  69.4585 290.6545 15.08844195116850,6917.868,95.437,540.619,538.846,0.0
53036.0,STARLINK-4155,PAYLOAD,2024-08-12 10:40:46,15.08873492,0.0001299,53.2155,132.0097,90.1374,269.9767,0.00073413,0.00011426,0.0,0 STARLINK-4155,1 53036U 22076BC  24225.44498534  .00011426  00000-0  73413-3 0  9995,2 53036  53.2155 132.0097 0001299  90.1374 269.9767 15.08873492116895,6917.778,95.435,540.542,538.744,0.0
53036.0,STARLINK-4155,PAYLOAD,2024-08-12 21:48:29,15.08845032,0.0001769,53.2149,129.9272,97.6126,262.5067,0.00012371,1.682e-05,0.0,0 STARLINK-4155,1 53036U 22076BC  24225.90867571  .00001682  00000-0  12371-3 0  9996,2 53036  53.2149 129.9272 0001769  97.6126 262.5067 15.08845032116506,6917.865,95.437,540.954,538.506,0.0
53036.0,STARLINK-4155,PAYLOAD,2024-08-13 04:10:03,15.08794367,0.0001539,53.2147,128.7346,96.9644,263.1523,-0.0012111,-0.00019487,0.0,0 STARLINK-4155,1 53036U 22076BC  24226.17365334 -.00019487  00000-0 -12111-2 0  9991,2 53036  53.2147 128.7346 0001539  96.9644 263.1523 15.08794367117009,6918.02,95.44,540.95,538.82,0.0
53036.0,STARLINK-4155,PAYLOAD,2024-08-13 10:31:36,15.08797354,0.0001156,53.216,127.5472,94.5992,265.5132,-0.00076366,-0.00012406,0.0,0 STARLINK-4155,1 53036U 22076BC  24226.43861531 -.00012406  00000-0 -76366-3 0  9997,2 53036  53.2160 127.5472 0001156  94.5992 265.5132 15.08797354117041,6918.011,95.44,540.675,539.076,0.0
53036.0,STARLINK-4155,PAYLOAD,2024-08-14 02:25:29,15.08819334,0.0002171,53.2147,124.5727,86.9424,273.1816,0.0014879,0.00023458,0.0,0 STARLINK-4155,1 53036U 22076BC  24227.10103738  .00023458  00000-0  14879-2 0  9997,2 53036  53.2147 124.5727 0002171  86.9424 273.1816 15.08819334117147,6917.944,95.439,541.31,538.307,0.0
53036.0,STARLINK-4155,PAYLOAD,2024-08-14 10:22:24,15.08869035,0.000157,53.2137,123.0835,85.177,274.9401,0.0030866,0.00049218,0.0,0 STARLINK-4155,1 53036U 22076BC  24227.43223180  .00049218  00000-0  30866-2 0  9993,2 53036  53.2137 123.0835 0001570  85.1770 274.9401 15.08869035117194,6917.792,95.436,540.743,538.571,0.0
53036.0,STARLINK-4155,PAYLOAD,2024-08-14 23:05:29,15.08872459,0.0001271,53.2136,120.7073,87.6491,272.4646,0.0012296,0.00019353,0.0,0 STARLINK-4155,1 53036U 22076BC  24227.96214274  .00019353  00000-0  12296-2 0  9999,2 53036  53.2136 120.7073 0001271  87.6491 272.4646 15.08872459116812,6917.781,95.436,540.525,538.767,0.0
53036.0,STARLINK-4155,PAYLOAD,2024-08-15 00:40:52,15.08875541,0.0001415,53.2143,120.4116,82.0533,278.062,0.0010889,0.00017101,0.0,0 STARLINK-4155,1 53036U 22076BC  24228.02838158  .00017101  00000-0  10889-2 0  9995,2 53036  53.2143 120.4116 0001415  82.0533 278.0620 15.08875541117282,6917.772,95.435,540.616,538.658,0.0
53036.0,STARLINK-4155,PAYLOAD,2024-08-15 21:20:52,15.08875499,8.91e-05,53.2146,116.5408,82.074,278.0354,0.0020108,0.0003189,0.0,0 STARLINK-4155,1 53036U 22076BC  24228.88949389  .00031890  00000-0  20108-2 0  9994,2 53036  53.2146 116.5408 0000891  82.0740 278.0354 15.08875499117413,6917.772,95.435,540.253,539.021,0.0
53036.0,STARLINK-4155,PAYLOAD,2024-08-15 22:56:15,15.08890538,0.0001533,53.214,116.2474,85.5676,274.5491,0.0026814,0.00042705,0.0,0 STARLINK-4155,1 53036U 22076BC  24228.95573342  .00042705  00000-0  26814-2 0  9991,2 53036  53.2140 116.2474 0001533  85.5676 274.5491 15.08890538116960,6917.726,95.434,540.651,538.53,0.0
53036.0,STARLINK-4155,PAYLOAD,2024-08-16 21:11:39,15.08873633,0.0001305,53.215,112.0825,104.45,255.6637,0.0023389,0.00037167,0.0,0 STARLINK-4155,1 53036U 22076BC  24229.88309305  .00037167  00000-0  23389-2 0  9990,2 53036  53.2150 112.0825 0001305 104.4500 255.6637 15.08873633117565,6917.778,95.435,540.545,538.74,0.0
53036.0,STARLINK-4155,PAYLOAD,2024-08-17 01:57:48,15.08859209,0.0001182,53.2151,111.192,96.5724,263.5403,0.0010584,0.00016605,0.0,0 STARLINK-4155,1 53036U 22076BC  24230.08181133  .00016605  00000-0  10584-2 0  9998,2 53036  53.2151 111.1920 0001182  96.5724 263.5403 15.08859209117599,6917.822,95.436,540.504,538.869,0.0
53036.0,STARLINK-4155,PAYLOAD,2024-08-18 01:48:35,15.08846899,0.0001104,53.2145,106.7315,85.2829,274.8289,0.00056165,8.664e-05,0.0,0 STARLINK-4155,1 53036U 22076BC  24231.07541415  .00008664  00000-0  56165-3 0  9993,2 53036  53.2145 106.7315 0001104  85.2829 274.8289 15.08846899117740,6917.859,95.437,540.488,538.961,0.0
53036.0,STARLINK-4155,PAYLOAD,2024-08-18 20:53:13,15.08843861,0.0001415,53.216,103.1579,117.1162,242.9975,0.00018729,2.694e-05,0.0,0 STARLINK-4155,1 53036U 22076BC  24231.87029325  .00002694  00000-0  18729-3 0  9993,2 53036  53.2160 103.1579 0001415 117.1162 242.9975 15.08843861117867,6917.869,95.437,540.712,538.755,0.0
53036.0,STARLINK-4155,PAYLOAD,2024-08-19 08:00:54,15.08852011,0.0001177,53.2162,101.0794,85.706,274.4066,0.00028658,4.277e-05,0.0,0 STARLINK-4155,1 53036U 22076BC  24232.33396984  .00004277  00000-0  28658-3 0  9994,2 53036  53.2162 101.0794 0001177  85.7060 274.4066 15.08852011117472,6917.844,95.437,540.523,538.894,0.0
53036.0,STARLINK-4155,PAYLOAD,2024-08-19 20:44:01,15.08828526,0.0001472,53.2166,98.6992,84.7295,275.3865,-6.8666e-05,-1.38e-05,0.0,0 STARLINK-4155,1 53036U 22076BC  24232.86390158 -.00001380  00000-0 -68666-4 0  9997,2 53036  53.2166  98.6992 0001472  84.7295 275.3865 15.08828526118016,6917.915,95.438,540.799,538.762,0.0
53036.0,STARLINK-4155,PAYLOAD,2024-08-20 07:51:42,15.08842355,0.0001411,53.2166,96.6193,90.6843,269.4311,0.00019508,2.818e-05,0.0,0 STARLINK-4155,1 53036U 22076BC  24233.32757803  .00002818  00000-0  19508-3 0  9998,2 53036  53.2166  96.6193 0001411  90.6843 269.4311 15.08842355118088,6917.873,95.437,540.714,538.762,0.0
53036.0,STARLINK-4155,PAYLOAD,2024-08-21 01:20:57,15.08857382,0.000147,53.2157,93.3489,89.5904,270.5256,0.00078129,0.00012174,0.0,0 STARLINK-4155,1 53036U 22076BC  24234.05621661  .00012174  00000-0  78129-3 0  9991,2 53036  53.2157  93.3489 0001470  89.5904 270.5256 15.08857382118199,6917.827,95.436,540.709,538.675,0.0
53036.0,STARLINK-4155,PAYLOAD,2024-08-21 20:25:35,15.08838545,0.0001295,53.2151,89.7738,88.1831,271.9309,7.9939e-05,9.85e-06,0.0,0 STARLINK-4155,1 53036U 22076BC  24234.85110021  .00000985  00000-0  79939-4 0  9990,2 53036  53.2151  89.7738 0001295  88.1831 271.9309 15.08838545117854,6917.885,95.438,540.646,538.854,0.0
53036.0,STARLINK-4155,PAYLOAD,2024-08-21 22:00:58,15.08835166,0.0001591,53.2159,89.4776,76.2726,283.8443,9.1026e-06,-1.43e-06,0.0,0 STARLINK-4155,1 53036U 22076BC  24234.91734286 -.00000143  00000-0  91026-5 0  9991,2 53036  53.2159  89.4776 0001591  76.2726 283.8443 15.08835166118321,6917.895,95.438,540.861,538.66,0.0
